{"type": "FeatureCollection", "features": [ {"type": "Feature", "properties": {"norad_id": 65304, "name": "DRAGON CRS-33", "group": "stations", "lat": 35.938644538117835, "lon": -148.03892369203112, "alt_km": 414.4852573416929, "timestamp": "2025-12-27T23:26:36.108007+00:00", "meta": {"OBJECT_NAME": "DRAGON CRS-33", "OBJECT_ID": "2025-186A", "EPOCH": "2025-12-27T04:18:31.505184", "MEAN_MOTION": 15.49864323, "ECCENTRICITY": 0.00032283, "INCLINATION": 51.6319, "RA_OF_ASC_NODE": 70.9638, "ARG_OF_PERICENTER": 308.9173, "MEAN_ANOMALY": 51.1527, "EPHEMERIS_TYPE": 0, "CLASSIFICATION_TYPE": "U", "NORAD_CAT_ID": 65304, "ELEMENT_SET_NO": 999, "REV_AT_EPOCH": 11, "BSTAR": 0.0002516974, "MEAN_MOTION_DOT": 0.00013867, "MEAN_MOTION_DDOT": 0}, "tle": {"line1": "1 65304U 25186A   25361.17953131  .00013867  00000+0  25170-3 0  9999", "line2": "2 65304  51.6319  70.9638 0003228 308.9173  51.1527 15.49864323   112"}}, "geometry": {"type": "Point", "coordinates": [-148.03892369203112, 35.938644538117835]}}, {"type": "Feature", "properties": {"norad_id": 65586, "name": "PROGRESS-MS 32", "group": "stations", "lat": 35.93864408171105, "lon": -148.03892301886077, "alt_km": 414.485257414578, "timestamp": "2025-12-27T23:26:36.108018+00:00", "meta": {"OBJECT_NAME": "PROGRESS-MS 32", "OBJECT_ID": "2025-204A", "EPOCH": "2025-12-27T04:18:31.505184", "MEAN_MOTION": 15.49864323, "ECCENTRICITY": 0.00032283, "INCLINATION": 51.6319, "RA_OF_ASC_NODE": 70.9638, "ARG_OF_PERICENTER": 308.9173, "MEAN_ANOMALY": 51.1527, "EPHEMERIS_TYPE": 0, "CLASSIFICATION_TYPE": "U", "NORAD_CAT_ID": 65586, "ELEMENT_SET_NO": 999, "REV_AT_EPOCH": 27, "BSTAR": 0.0002516974, "MEAN_MOTION_DOT": 0.00013867, "MEAN_MOTION_DDOT": 0}, "tle": {"line1": "1 65586U 25204A   25361.17953131  .00013867  00000+0  25170-3 0  9992", "line2": "2 65586  51.6319  70.9638 0003228 308.9173  51.1527 15.49864323   271"}}, "geometry": {"type": "Point", "coordinates": [-148.03892301886077, 35.93864408171105]}}, {"type": "Feature", "properties": {"norad_id": 65616, "name": "CYGNUS NG-23", "group": "stations", "lat": 35.938643625303676, "lon": -148.03892234568966, "alt_km": 414.4852574874676, "timestamp": "2025-12-27T23:26:36.108029+00:00", "meta": {"OBJECT_NAME": "CYGNUS NG-23", "OBJECT_ID": "2025-208A", "EPOCH": "2025-12-27T04:18:31.505184", "MEAN_MOTION": 15.49864323, "ECCENTRICITY": 0.00032283, "INCLINATION": 51.6319, "RA_OF_ASC_NODE": 70.9638, "ARG_OF_PERICENTER": 308.9173, "MEAN_ANOMALY": 51.1527, "EPHEMERIS_TYPE": 0, "CLASSIFICATION_TYPE": "U", "NORAD_CAT_ID": 65616, "ELEMENT_SET_NO": 999, "REV_AT_EPOCH": 22, "BSTAR": 0.0002516974, "MEAN_MOTION_DOT": 0.00013867, "MEAN_MOTION_DDOT": 0}, "tle": {"line1": "1 65616U 25208A   25361.17953131  .00013867  00000+0  25170-3 0  9990", "line2": "2 65616  51.6319  70.9638 0003228 308.9173  51.1527 15.49864323   220"}}, "geometry": {"type": "Point", "coordinates": [-148.03892234568966, 35.938643625303676]}}, {"type": "Feature", "properties": {"norad_id": 65729, "name": "DRAGONFLY", "group": "stations", "lat": 26.153220299775043, "lon": 80.3337629180475, "alt_km": 329.43210290538445, "timestamp": "2025-12-27T23:26:36.108040+00:00", "meta": {"OBJECT_NAME": "DRAGONFLY", "OBJECT_ID": "1998-067XH", "EPOCH": "2025-12-27T09:36:53.510976", "MEAN_MOTION": 15.772546, "ECCENTRICITY": 0.0008326, "INCLINATION": 51.6252, "RA_OF_ASC_NODE": 60.4091, "ARG_OF_PERICENTER": 3.6197, "MEAN_ANOMALY": 356.4863, "EPHEMERIS_TYPE": 0, "CLASSIFICATION_TYPE": "U", "NORAD_CAT_ID": 65729, "ELEMENT_SET_NO": 999, "REV_AT_EPOCH": 1547, "BSTAR": 0.0013487, "MEAN_MOTION_DOT": 0.00232349, "MEAN_MOTION_DDOT": 0}, "tle": {"line1": "1 65729U 98067XH  25361.40061934  .00232349  00000+0  13487-2 0  9990", "line2": "2 65729  51.6252  60.4091 0008326   3.6197 356.4863 15.77254600 15476"}}, "geometry": {"type": "Point", "coordinates": [80.3337629180475, 26.153220299775043]}}, {"type": "Feature", "properties": {"norad_id": 65731, "name": "1998-067XK", "group": "stations", "lat": 11.769020185778126, "lon": 69.2601995440518, "alt_km": 358.7670883234359, "timestamp": "2025-12-27T23:26:36.108053+00:00", "meta": {"OBJECT_NAME": "1998-067XK", "OBJECT_ID": "1998-067XK", "EPOCH": "2025-12-27T11:08:53.834208", "MEAN_MOTION": 15.68658441, "ECCENTRICITY": 0.0005069, "INCLINATION": 51.6288, "RA_OF_ASC_NODE": 62.37, "ARG_OF_PERICENTER": 336.6665, "MEAN_ANOMALY": 23.4101, "EPHEMERIS_TYPE": 0, "CLASSIFICATION_TYPE": "U", "NORAD_CAT_ID": 65731, "ELEMENT_SET_NO": 999, "REV_AT_EPOCH": 1545, "BSTAR": 0.00095755, "MEAN_MOTION_DOT": 0.00112248, "MEAN_MOTION_DDOT": 0}, "tle": {"line1": "1 65731U 98067XK  25361.46451197  .00112248  00000+0  95755-3 0  9997", "line2": "2 65731  51.6288  62.3700 0005069 336.6665  23.4101 15.68658441 15451"}}, "geometry": {"type": "Point", "coordinates": [69.2601995440518, 11.769020185778126]}}, {"type": "Feature", "properties": {"norad_id": 65732, "name": "RSP-03", "group": "stations", "lat": 5.405482914100175, "lon": -125.63794356269135, "alt_km": 355.21376640768176, "timestamp": "2025-12-27T23:26:36.108063+00:00", "meta": {"OBJECT_NAME": "RSP-03", "OBJECT_ID": "1998-067XL", "EPOCH": "2025-12-27T10:30:36.886752", "MEAN_MOTION": 15.72555826, "ECCENTRICITY": 0.0006137, "INCLINATION": 51.6262, "RA_OF_ASC_NODE": 61.4259, "ARG_OF_PERICENTER": 344.1369, "MEAN_ANOMALY": 15.9436, "EPHEMERIS_TYPE": 0, "CLASSIFICATION_TYPE": "U", "NORAD_CAT_ID": 65732, "ELEMENT_SET_NO": 999, "REV_AT_EPOCH": 1547, "BSTAR": 0.0011231, "MEAN_MOTION_DOT": 0.00156013, "MEAN_MOTION_DDOT": 0}, "tle": {"line1": "1 65732U 98067XL  25361.43792693  .00156013  00000+0  11231-2 0  9998", "line2": "2 65732  51.6262  61.4259 0006137 344.1369  15.9436 15.72555826 15472"}}, "geometry": {"type": "Point", "coordinates": [-125.63794356269135, 5.405482914100175]}}, {"type": "Feature", "properties": {"norad_id": 65733, "name": "GHS-01", "group": "stations", "lat": 20.61446265154741, "lon": -140.89796311653726, "alt_km": 326.7963740593432, "timestamp": "2025-12-27T23:26:36.108074+00:00", "meta": {"OBJECT_NAME": "GHS-01", "OBJECT_ID": "1998-067XM", "EPOCH": "2025-12-27T12:11:15.233280", "MEAN_MOTION": 15.81984355, "ECCENTRICITY": 0.000952, "INCLINATION": 51.6274, "RA_OF_ASC_NODE": 58.8829, "ARG_OF_PERICENTER": 8.1386, "MEAN_ANOMALY": 351.9769, "EPHEMERIS_TYPE": 0, "CLASSIFICATION_TYPE": "U", "NORAD_CAT_ID": 65733, "ELEMENT_SET_NO": 999, "REV_AT_EPOCH": 1551, "BSTAR": 0.0015063, "MEAN_MOTION_DOT": 0.00325699, "MEAN_MOTION_DDOT": 0}, "tle": {"line1": "1 65733U 98067XM  25361.50781520  .00325699  00000+0  15063-2 0  9999", "line2": "2 65733  51.6274  58.8829 0009520   8.1386 351.9769 15.81984355 15514"}}, "geometry": {"type": "Point", "coordinates": [-140.89796311653726, 20.61446265154741]}}, {"type": "Feature", "properties": {"norad_id": 65941, "name": "YOTSUBA-KULOVER", "group": "stations", "lat": 38.99944145245956, "lon": -156.6345192799398, "alt_km": 378.739329707646, "timestamp": "2025-12-27T23:26:36.108085+00:00", "meta": {"OBJECT_NAME": "YOTSUBA-KULOVER", "OBJECT_ID": "1998-067XN", "EPOCH": "2025-12-27T06:00:30.216672", "MEAN_MOTION": 15.61434985, "ECCENTRICITY": 0.00027547, "INCLINATION": 51.629, "RA_OF_ASC_NODE": 66.9415, "ARG_OF_PERICENTER": 9.199, "MEAN_ANOMALY": 350.9054, "EPHEMERIS_TYPE": 0, "CLASSIFICATION_TYPE": "U", "NORAD_CAT_ID": 65941, "ELEMENT_SET_NO": 999, "REV_AT_EPOCH": 1212, "BSTAR": 0.00083629815, "MEAN_MOTION_DOT": 0.00072986, "MEAN_MOTION_DDOT": 0}, "tle": {"line1": "1 65941U 98067XN  25361.25034973  .00072986  00000+0  83630-3 0  9999", "line2": "2 65941  51.6290  66.9415 0002754   9.1990 350.9054 15.61434985 12125"}}, "geometry": {"type": "Point", "coordinates": [-156.6345192799398, 38.99944145245956]}}, {"type": "Feature", "properties": {"norad_id": 65942, "name": "BOTAN", "group": "stations", "lat": -33.7283716330361, "lon": 30.193010678210836, "alt_km": 371.794853104504, "timestamp": "2025-12-27T23:26:36.108095+00:00", "meta": {"OBJECT_NAME": "BOTAN", "OBJECT_ID": "1998-067XP", "EPOCH": "2025-12-27T05:15:28.443744", "MEAN_MOTION": 15.66006349, "ECCENTRICITY": 0.00036864, "INCLINATION": 51.6275, "RA_OF_ASC_NODE": 65.9806, "ARG_OF_PERICENTER": 351.9823, "MEAN_ANOMALY": 8.1114, "EPHEMERIS_TYPE": 0, "CLASSIFICATION_TYPE": "U", "NORAD_CAT_ID": 65942, "ELEMENT_SET_NO": 999, "REV_AT_EPOCH": 1213, "BSTAR": 0.0011595855, "MEAN_MOTION_DOT": 0.00122237, "MEAN_MOTION_DDOT": 0}, "tle": {"line1": "1 65942U 98067XP  25361.21907921  .00122237  00000+0  11596-2 0  9994", "line2": "2 65942  51.6275  65.9806 0003686 351.9823   8.1114 15.66006349 12134"}}, "geometry": {"type": "Point", "coordinates": [30.193010678210836, -33.7283716330361]}}, {"type": "Feature", "properties": {"norad_id": 65943, "name": "E-KAGAKU-1", "group": "stations", "lat": 39.28107246381756, "lon": -157.11287980135742, "alt_km": 378.771498859699, "timestamp": "2025-12-27T23:26:36.108106+00:00", "meta": {"OBJECT_NAME": "E-KAGAKU-1", "OBJECT_ID": "1998-067XQ", "EPOCH": "2025-12-26T11:34:38.215200", "MEAN_MOTION": 15.61326456, "ECCENTRICITY": 0.00014737, "INCLINATION": 51.6304, "RA_OF_ASC_NODE": 70.8185, "ARG_OF_PERICENTER": 333.5123, "MEAN_ANOMALY": 26.5795, "EPHEMERIS_TYPE": 0, "CLASSIFICATION_TYPE": "U", "NORAD_CAT_ID": 65943, "ELEMENT_SET_NO": 999, "REV_AT_EPOCH": 1200, "BSTAR": 0.0007949653, "MEAN_MOTION_DOT": 0.00069021, "MEAN_MOTION_DDOT": 0}, "tle": {"line1": "1 65943U 98067XQ  25360.48238675  .00069021  00000+0  79497-3 0  9992", "line2": "2 65943  51.6304  70.8185 0001473 333.5123  26.5795 15.61326456 12008"}}, "geometry": {"type": "Point", "coordinates": [-157.11287980135742, 39.28107246381756]}}]}